STARLINK-36704          
1 67697U 26025E   26053.91668981 -.00121313  00000+0 -63969-3 0  9992
2 67697  97.2795 164.7301 0001207  80.8249 230.1106 15.80875223  3477
STARLINK-36697          
1 67698U 26025F   26053.91668981 -.00069714  00000+0 -36537-3 0  9990
2 67698  97.2789 164.7338 0001281 100.6199 217.7988 15.80860692  3426
STARLINK-36716          
1 67699U 26025G   26053.91668981 -.00068379  00000+0 -35854-3 0  9998
2 67699  97.2805 164.7374 0001646 104.5400 223.7103 15.80845608  3638
STARLINK-36712          
1 67700U 26025H   26053.91668981  .00045691  00000+0  23822-3 0  9993
2 67700  97.2773 164.7422 0001419 110.4232 227.4731 15.80797909  3421
STARLINK-36713          
1 67701U 26025J   26053.91668981 -.00068333  00000+0 -35834-3 0  9990
2 67701  97.2763 164.7445 0000567  87.1053 260.4643 15.80845278  3635
STARLINK-36695          
1 67702U 26025K   26053.91668981 -.01845032  00000+0 -10772-1 0  9993
2 67702  97.2750 164.7476 0001055  86.0515 269.5648 15.81219176  3470
STARLINK-36630          
1 67703U 26025L   26053.91668981 -.00060289  00000+0 -31585-3 0  9993
2 67703  97.2743 164.7513 0001322  86.4103 277.1375 15.80839064  3474
STARLINK-36338          
1 67704U 26025M   26053.91668981 -.00061168  00000+0 -32061-3 0  9991
2 67704  97.2741 164.7555 0001048 102.0114 272.1817 15.80832284  3520
STARLINK-36316          
1 67705U 26025N   26053.91668981 -.00039316  00000+0 -20534-3 0  9994
2 67705  97.2729 164.7645 0001622  86.7759 309.1828 15.80825877  3521
STARLINK-36707          
1 67706U 26025P   26053.91668981  .00002182  00000+0  12126-4 0  9993
2 67706  97.2723 164.7694 0001446  68.3514 339.1376 15.80817239  3310
STARLINK-36645          
1 67707U 26025Q   26053.91668981 -.00045155  00000+0 -23588-3 0  9996
2 67707  97.2731 164.7599 0001514  71.2026 315.4052 15.80846387  3089
STARLINK-36287          
1 67708U 26025R   26053.91668981 -.00210815  00000+0 -11200-2 0  9991
2 67708  97.2714 164.7730 0001531  85.1756 332.3035 15.80943895  3633
